{
  "type": "FeatureCollection",
  "name": "sanchi_estimated_source_zone",
  "crs": {
    "type": "name",
    "properties": {
      "name": "urn:ogc:def:crs:OGC:1.3:CRS84"
    }
  },
  "features": [
    {
      "type": "Feature",
      "properties": {
        "incident_id": "sanchi_20180120",
        "target_time": "2018-01-14T09:28:53Z",
        "estimated_centroid": [
          30.300994,
          128.689311
        ],
        "uncertainty_radius_m": 48200.0,
        "uncertainty_radius_km": 48.2,
        "area_km2": 7295.74
      },
      "geometry": {
        "type": "Polygon",
        "coordinates": [
          [
            [
              129.19058290113318,
              30.301223949093764
            ],
            [
              129.18993797204485,
              30.27988212690551
            ],
            [
              129.18808781729788,
              30.258593384286044
            ],
            [
              129.1850376661636,
              30.23740895429486
            ],
            [
              129.18079562162228,
              30.216379786811117
            ],
            [
              129.17537263367456,
              30.195556426743032
            ],
            [
              129.16878246606421,
              30.174988893501787
            ],
            [
              129.16104165655625,
              30.154726562015494
            ],
            [
              129.1521694709253,
              30.134818045553068
            ],
            [
              129.14218785081977,
              30.11531108062115
            ],
            [
              129.13112135567854,
              30.096252414190303
            ],
            [
              129.1189970988842,
              30.077687693499428
            ],
            [
              129.10584467834653,
              30.059661358679612
            ],
            [
              129.09169610171742,
              30.0422165384308
            ],
            [
              129.07658570644475,
              30.02539494897599
            ],
            [
              129.06055007487967,
              30.00923679650956
            ],
            [
              129.04362794465698,
              29.993780683347047
            ],
            [
              129.02586011457396,
              29.979063517974815
            ],
            [
              129.00728934619715,
              29.96512042918855
            ],
            [
              128.98796026143077,
              29.951984684500108
            ],
            [
              128.96791923628462,
              29.939687612982215
            ],
            [
              128.94721429108174,
              29.928258532710675
            ],
            [
              128.9258949773501,
              29.917724682953608
            ],
            [
              128.90401226164408,
              29.908111161246772
            ],
            [
              128.8816184065443,
              29.899440865483385
            ],
            [
              128.85876684908675,
              29.891734441136737
            ],
            [
              128.83551207687253,
              29.885010233722152
            ],
            [
              128.81190950211288,
              29.879284246595063
            ],
            [
              128.7880153338632,
              29.87457010416972
            ],
            [
              128.76388644870298,
              29.87087902063303
            ],
            [
              128.73958026011806,
              29.868219774215824
            ],
            [
              128.71515458684217,
              29.866598687073285
            ],
            [
              128.69066752041695,
              29.86601961081441
            ],
            [
              128.6661772922274,
              29.866483917709097
            ],
            [
              128.64174214027213,
              29.8679904975902
            ],
            [
              128.61742017592738,
              29.870535760456054
            ],
            [
              128.5932692509621,
              29.87411364476789
            ],
            [
              128.56934682506406,
              29.87871563142479
            ],
            [
              128.54570983413373,
              29.884330763387513
            ],
            [
              128.52241455960421,
              29.890945670911268
            ],
            [
              128.49951649904395,
              29.89854460233607
            ],
            [
              128.47707023829813,
              29.907109460371807
            ],
            [
              128.4551293254242,
              29.91661984380461
            ],
            [
              128.43374614667545,
              29.9270530945393
            ],
            [
              128.41297180478523,
              29.93838434988221
            ],
            [
              128.39285599980317,
              29.95058659995776
            ],
            [
              128.37344691273253,
              29.96363075014121
            ],
            [
              128.35479109221637,
              29.977485688379755
            ],
            [
              128.33693334451752,
              29.992118357263486
            ],
            [
              128.31991662703473,
              30.007493830697577
            ],
            [
              128.30378194559495,
              30.023575395017115
            ],
            [
              128.28856825575795,
              30.040324634375764
            ],
            [
              128.2743123683658,
              30.05770152023011
            ],
            [
              128.26104885956644,
              30.07566450473203
            ],
            [
              128.2488099855348,
              30.094170617831754
            ],
            [
              128.237625602111,
              30.113175567885914
            ],
            [
              128.2275230895688,
              30.13263384555555
            ],
            [
              128.2185272827218,
              30.1524988307708
            ],
            [
              128.21066040656797,
              30.172722902530804
            ],
            [
              128.20394201766516,
              30.19325755129919
            ],
            [
              128.1983889514228,
              30.214053493748125
            ],
            [
              128.1940152754855,
              30.23506078959653
            ],
            [
              128.19083224937492,
              30.256228960281273
            ],
            [
              128.18884829054534,
              30.277507109193355
            ],
            [
              128.1880689469973,
              30.298844043205406
            ],
            [
              128.18849687658138,
              30.320188395210874
            ],
            [
              128.1901318331107,
              30.341488747390322
            ],
            [
              128.19297065938724,
              30.362693754915412
            ],
            [
              128.1970072872313,
              30.383752269797395
            ],
            [
              128.20223274458831,
              30.404613464583036
            ],
            [
              128.20863516976996,
              30.42522695559864
            ],
            [
              128.2161998328686,
              30.445542925439884
            ],
            [
              128.22490916436638,
              30.46551224440464
            ],
            [
              128.23474279093983,
              30.485086590564364
            ],
            [
              128.24567757844142,
              30.504218568170582
            ],
            [
              128.25768768201883,
              30.522861824093084
            ],
            [
              128.27074460331022,
              30.540971161989013
            ],
            [
              128.28481725463288,
              30.558502653904142
            ],
            [
              128.2998720300597,
              30.575413749011663
            ],
            [
              128.3158728832546,
              30.591663379198003
            ],
            [
              128.33278141191582,
              30.607212061211165
            ],
            [
              128.35055694865264,
              30.622021995093235
            ],
            [
              128.36915665809698,
              30.636057158626656
            ],
            [
              128.38853564002957,
              30.64928339753182
            ],
            [
              128.40864703827702,
              30.661668511163995
            ],
            [
              128.42944215511395,
              30.673182333467132
            ],
            [
              128.4508705708825,
              30.68379680895455
            ],
            [
              128.4728802685209,
              30.693486063498334
            ],
            [
              128.49541776267262,
              30.702226469723154
            ],
            [
              128.51842823302843,
              30.7099967068142
            ],
            [
              128.5418556615364,
              30.71677781456434
            ],
            [
              128.56564297309714,
              30.722553241501455
            ],
            [
              128.58973217934874,
              30.727308886953374
            ],
            [
              128.61406452512972,
              30.73103313692567
            ],
            [
              128.63858063719871,
              30.73371689368485
            ],
            [
              128.6632206747784,
              30.735353598958604
            ],
            [
              128.68792448148326,
              30.73593925068279
            ],
            [
              128.71263173818483,
              30.73547241324513
            ],
            [
              128.73728211636345,
              30.733954221193706
            ],
            [
              128.76181543149343,
              30.731388376399316
            ],
            [
              128.78617179600883,
              30.72778113867925
            ],
            [
              128.81029177139757,
              30.723141309910375
            ],
            [
              128.83411651897742,
              30.71748021167863
            ],
            [
              128.8575879489114,
              30.710811656531426
            ],
            [
              128.88064886702867,
              30.703151912918194
            ],
            [
              128.90324311902748,
              30.69451966392314
            ],
            [
              128.92531573164658,
              30.68493595991202
            ],
            [
              128.94681305040586,
              30.674424165232722
            ],
            [
              128.96768287353157,
              30.66300989912546
            ],
            [
              128.98787458169696,
              30.65072097101557
            ],
            [
              129.00733926322818,
              30.63758731037633
            ],
            [
              129.02602983444274,
              30.623640891364317
            ],
            [
              129.04390115480805,
              30.60891565244325
            ],
            [
              129.0609101366293,
              30.593447411225068
            ],
            [
              129.0770158489958,
              30.577273774768717
            ],
            [
              129.09217961573913,
              30.56043404558797
            ],
            [
              129.10636510717714,
              30.542969123629344
            ],
            [
              129.11953842544244,
              30.524921404490232
            ],
            [
              129.13166818321633,
              30.506334674154836
            ],
            [
              129.14272557571263,
              30.487254000532207
            ],
            [
              129.1526844457791,
              30.467725622087247
            ],
            [
              129.1615213420069,
              30.44779683385912
            ],
            [
              129.16921556976138,
              30.427515871166477
            ],
            [
              129.17574923506947,
              30.40693179130107
            ],
            [
              129.18110728132078,
              30.386094353513798
            ],
            [
              129.18527751876044,
              30.365053897597814
            ],
            [
              129.18825064677225,
              30.343861221374166
            ],
            [
              129.19002026896982,
              30.32256745738443
            ],
            [
              129.19058290113318,
              30.301223949093764
            ]
          ]
        ]
      }
    }
  ]
}